IRIDIUM 26              
1 24903U 97043A   26003.14115249  .00000762  00000+0  24879-3 0  9996
2 24903  86.3944  26.5643 0002338  95.1393 265.0071 14.37348552485466
IRIDIUM 22              
1 24907U 97043E   26003.09811176  .00000619  00000+0  20578-3 0  9999
2 24907  86.3945  30.2942 0002314  90.0224 270.1238 14.36139449485460
DUMMY MASS 1            
1 24925U 97048A   26003.13518502  .00000746  00000+0  79749-4 0  9992
2 24925  86.3325  42.8024 0007807 141.1918 218.9869 14.87204560534842
DUMMY MASS 2            
1 24926U 97048B   26003.13074588  .00000735  00000+0  79036-4 0  9991
2 24926  86.3325  44.4492 0008132 152.8390 207.3262 14.86954993534610
IRIDIUM 29              
1 24944U 97051A   26003.18747538  .00000651  00000+0  21467-3 0  9993
2 24944  86.3932  59.9358 0002144  88.6967 271.4476 14.36682959481984
IRIDIUM 33              
1 24946U 97051C   26003.18284200  .00000580  00000+0  19673-3 0  9994
2 24946  86.3847  59.2185 0009329 134.8145 225.3811 14.35055041481421
IRIDIUM 28              
1 24948U 97051E   26003.10467065  .00000697  00000+0  22615-3 0  9999
2 24948  86.3937  57.3720 0002582 103.2604 256.8882 14.37583332482565
IRIDIUM 36              
1 24967U 97056C   26003.17605676  .00000804  00000+0  26041-3 0  9991
2 24967  86.3958  88.9715 0002386  96.0710 264.0759 14.37807857480958
